STARLINK-32164          
1 60271U 24131S   24340.13453818  .00085220  00000+0  28934-2 0  9997
2 60271  53.1607  27.3768 0003176 132.2003 227.9268 15.29782649 20833
STARLINK-32128          
1 60272U 24131T   24339.56231517  .00001809  00000+0  73240-4 0  9996
2 60272  53.1608  29.4986 0000886  65.2890 294.8203 15.30172682 21277
STARLINK-32206          
1 60273U 24131U   24339.56572201  .00002833  00000+0  95440-4 0  9999
2 60273  53.1583  31.6503 0000882  58.9740 301.1349 15.34228647 21235
STARLINK-32155          
1 60274U 24131V   24339.46439115 -.00002607  00000+0 -75912-4 0  9998
2 60274  53.1604  30.3102 0001048  82.9549 277.1571 15.30202265 21154
STARLINK-32152          
1 60275U 24131W   24339.62445103  .00005175  00000+0  18678-3 0  9997
2 60275  53.1597  29.1718 0001418  91.1986 268.9178 15.30191708 21186
STARLINK-32154          
1 60276U 24131X   24339.55280733 -.00000645  00000+0 -96516-5 0  9994
2 60276  53.1601  29.4342 0001298  94.7079 265.4070 15.30189427 21264
STARLINK-32135          
1 60277U 24131Y   24340.15752263  .00006087  00000+0  21748-3 0  9992
2 60277  53.1574  26.8053 0001152  94.0110 266.1022 15.30198071 21352
STARLINK-32156          
1 60278U 24132A   24339.56022345  .00000030  00000+0  13123-4 0  9999
2 60278  53.1596  29.6048 0000547  52.7806 307.3244 15.30172122 22334
STARLINK-32010          
1 60279U 24132B   24340.11545098 -.00000730  00000+0 -12525-4 0  9992
2 60279  53.1603  27.3810 0001752 138.1072 222.0063 15.30182430 21197
STARLINK-32118          
1 60280U 24132C   24340.14171441  .00000642  00000+0  33786-4 0  9996
2 60280  53.1602  26.8354 0000978  83.1237 276.9874 15.30191219 21201
STARLINK-32038          
1 60281U 24132D   24340.14381848  .00007031  00000+0  24917-3 0  9995
2 60281  53.1595  26.8515 0001217  91.6063 268.5077 15.30214525 21208
STARLINK-32113          
1 60282U 24132E   24340.14487937  .00001406  00000+0  59587-4 0  9994
2 60282  53.1597  26.8570 0001312  83.0460 277.0690 15.30195254 21207
STARLINK-32037          
1 60283U 24132F   24339.44647356 -.00000227  00000+0  44720-5 0  9994
2 60283  53.1606  30.3165 0001287  95.4867 264.6281 15.30185635 21084
STARLINK-32123          
1 60284U 24132G   24339.43129017  .00083372  00000+0  26670-2 0  9995
2 60284  53.1581  30.2267 0002882  71.1058 289.0256 15.31716528 21090
STARLINK-32122          
1 60285U 24132H   24339.57076590  .00027816  00000+0  94779-3 0  9995
2 60285  53.1580  29.6722 0000951  59.5963 300.5132 15.30199377 21119
STARLINK-31656          
1 60286U 24132J   24340.13537411 -.00004842  00000+0 -15143-3 0  9998
2 60286  53.1614  26.8025 0001925  97.2571 262.8649 15.30202539 21207
STARLINK-32114          
1 60287U 24132K   24340.11969711  .00002345  00000+0  91418-4 0  9993
2 60287  53.1614  27.4081 0000965  97.3763 262.7347 15.30138580 21189
STARLINK-31997          
1 60288U 24132L   24340.12588772 -.00000624  00000+0 -89646-5 0  9990
2 60288  53.1644  26.7349 0000652 147.3883 212.7158 15.30185705 21191
STARLINK-32000          
1 60289U 24132M   24340.16809559  .00023099  00000+0  78914-3 0  9997
2 60289  53.1589  27.0013 0001831 111.6249 248.4947 15.30218792 21209
STARLINK-32141          
1 60290U 24132N   24339.56444500 -.00005138  00000+0 -16147-3 0  9998
2 60290  53.1598  29.6296 0000897  34.3794 325.7265 15.30198917 21117
STARLINK-32142          
1 60291U 24132P   24339.60864412 -.00001388  00000+0 -34740-4 0  9995
2 60291  53.1614  29.1969 0001285  88.8714 271.2434 15.30194852 21125
STARLINK-32149          
1 60292U 24132Q   24339.51812557  .00000890  00000+0  42192-4 0  9994
2 60292  53.1608  30.0547 0000851  67.5385 292.5706 15.30172803 21106
STARLINK-32159          
1 60293U 24132R   24340.12904874  .00001583  00000+0  65594-4 0  9999
2 60293  53.1617  26.7581 0001225  88.2801 271.8340 15.30188029 21208
STARLINK-32150          
1 60294U 24132S   24340.17441504  .00004340  00000+0  15848-3 0  9991
2 60294  53.1627  27.0366 0001112  64.4494 295.6622 15.30217087 21208
STARLINK-32126          
1 60295U 24132T   24340.18708513  .00009764  00000+0  34120-3 0  9998
2 60295  53.1612  27.1131 0000856 102.7564 257.3532 15.30215550 21200
STARLINK-32143          
1 60296U 24132U   24340.17759479  .00002704  00000+0  10343-3 0  9993
2 60296  53.1601  27.0607 0001692 101.6871 258.4320 15.30184574 21202
STARLINK-32034          
1 60297U 24132V   24339.44541794 -.00000741  00000+0 -12922-4 0  9998
2 60297  53.1587  30.3090 0001135  84.6126 275.5004 15.30181217 21091
STARLINK-32124          
1 60298U 24132W   24339.58871174 -.00005892  00000+0 -18698-3 0  9999
2 60298  53.1600  29.7818 0001208 112.6582 247.4547 15.30195741 21117
STARLINK-32151          
1 60299U 24132X   24340.00002315  .00089204  00000+0  17679-2 0  9996
2 60299  53.1569  22.9487 0010466  45.3861  38.0528 15.46270019 21232
STARLINK-32134          
1 60300U 24132Y   24339.43590795 -.00006368  00000+0 -20320-3 0  9998
2 60300  53.1584  30.2490 0001903  82.0652 278.0564 15.30173582 21090
STARLINK-11147 [DTC]    
1 60301U 24133A   24340.01298986 -.00000272  00000+0  26199-5 0  9992
2 60301  53.1576 252.4905 0001534  74.9912 285.1275 15.69709596 21562
STARLINK-11128 [DTC]    
1 60302U 24133B   24339.94440367  .00000958  00000+0  12763-4 0  9996
2 60302  53.1590 252.7693 0001321  75.2661 284.8503 15.69723574 21523
STARLINK-11227 [DTC]    
1 60303U 24133C   24340.00317982  .00001535  00000+0  17531-4 0  9992
2 60303  53.1598 252.4212 0001496  86.6417 273.4772 15.69703629 21626
STARLINK-11224 [DTC]    
1 60304U 24133D   24340.12559787 -.00012068  00000+0 -94654-4 0  9993
2 60304  53.1589 251.7616 0000672 106.9809 253.1283 15.69773037 21636
STARLINK-11115 [DTC]    
1 60305U 24133E   24340.05703223  .00012269  00000+0  10587-3 0  9995
2 60305  53.1574 252.0422 0001143 101.8378 258.2768 15.69735213 21581
STARLINK-11109 [DTC]    
1 60306U 24133F   24339.92478634  .00001996  00000+0  21327-4 0  9995
2 60306  53.1607 252.6339 0000659  69.8528 290.2561 15.69703559 21522
STARLINK-11223 [DTC]    
1 60307U 24133G   24340.16967534 -.00003123  00000+0 -20943-4 0  9995
2 60307  53.1591 251.3140 0001153  81.1955 278.9193 15.69690752 21548
STARLINK-11192 [DTC]    
1 60308U 24133H   24340.04720993  .00001023  00000+0  13291-4 0  9992
2 60308  53.1602 251.9743 0001146  82.6798 277.4350 15.69732187 21593
STARLINK-11213 [DTC]    
1 60309U 24133J   24340.16474377  .00000784  00000+0  11326-4 0  9998
2 60309  53.1589 251.2829 0001202  84.9366 275.1789 15.69722282 21456
STARLINK-11200 [DTC]    
1 60310U 24133K   24339.07746197  .00001403  00000+0  16433-4 0  9993
2 60310  53.1577 256.5845 0001200  71.1683 288.9465 15.69712094 21395
STARLINK-11208 [DTC]    
1 60311U 24133L   24340.06774324 -.00001331  00000+0 -65347-5 0  9999
2 60311  53.1594 252.1048 0001413  99.3137 260.8040 15.68481263 21392
STARLINK-11206 [DTC]    
1 60312U 24133M   24340.15013254  .00022489  00000+0  18991-3 0  9994
2 60312  53.1575 251.9166 0001430  87.3096 272.8086 15.69719010 21523
STARLINK-11205 [DTC]    
1 60313U 24133N   24340.01788183  .00003156  00000+0  30888-4 0  9990
2 60313  53.1588 252.5112 0000961  93.6083 266.5045 15.69715019 21429
STARLINK-32191          
1 60314U 24133P   24339.98423000 -.00002343  00000+0 -48615-4 0  9995
2 60314  53.1602 275.4529 0000579  45.9919 314.1133 15.39622150 21277
STARLINK-32194          
1 60315U 24133Q   24340.09061765  .00001905  00000+0  57619-4 0  9991
2 60315  53.1602 275.4093 0001154 100.6587 259.4547 15.39609026 21260
STARLINK-32192          
1 60316U 24133R   24340.09560560  .00000220  00000+0  15493-4 0  9992
2 60316  53.1622 275.4402 0001478  94.1076 266.0098 15.39590103 21312
STARLINK-32189          
1 60317U 24133S   24340.14656346  .00002680  00000+0  76920-4 0  9991
2 60317  53.1615 275.0424 0000940  84.7499 275.3613 15.39633523 21323
STARLINK-32190          
1 60318U 24133T   24340.12302199 -.00010390  00000+0 -25025-3 0  9992
2 60318  53.1591 274.9003 0000712  99.8710 260.2375 15.39606643 21329
STARLINK-32182          
1 60319U 24133U   24340.10021463  .00001922  00000+0  57995-4 0  9994
2 60319  53.1611 275.4690 0001055 102.6589 257.4534 15.39633578 21264
STARLINK-32199          
1 60320U 24133V   24340.00247899  .00003801  00000+0  10493-3 0  9997
2 60320  53.1615 275.5694 0000737  58.9199 301.1878 15.39625603 21258
STARLINK-32198          
1 60321U 24133W   24339.55737399 -.00000657  00000+0 -64345-5 0  9990
2 60321  53.1593 277.7645 0001126  83.8247 276.2886 15.39620908 21230
STARLINK-31745          
1 60329U 24136A   24339.70093391  .00002442  00000+0  94602-4 0  9995
2 60329  53.1602  52.5917 0000781  70.6375 289.4711 15.30179796 20442
STARLINK-32153          
1 60330U 24136B   24339.50393158 -.00002923  00000+0 -86586-4 0  9997
2 60330  53.1617  53.4966 0001352  75.3644 284.7507 15.30204313 19207
STARLINK-32203          
1 60331U 24136C   24339.60405252  .00000762  00000+0  29015-4 0  9999
2 60331  53.1610  50.5760 0000956 100.8854 259.2258 15.39620855 20313
STARLINK-32171          
1 60332U 24136D   24339.69038509  .00000580  00000+0  31724-4 0  9994
2 60332  53.1610  52.5292 0001489 101.0987 259.0181 15.30187251 19239
STARLINK-32133          
1 60333U 24136E   24339.49761949  .00000272  00000+0  21338-4 0  9992
2 60333  53.1612  53.4614 0001296  74.5619 285.5524 15.30163984 19201
STARLINK-32132          
1 60334U 24136F   24339.68723494  .00000496  00000+0  28904-4 0  9991
2 60334  53.1608  52.5073 0000936  59.6098 300.4995 15.30164280 19233
STARLINK-32168          
1 60335U 24136G   24339.94531468  .00000361  00000+0  24331-4 0  9990
2 60335  53.1618  51.2762 0001297  94.1027 266.0122 15.30188053 20430
STARLINK-32079          
1 60336U 24136H   24339.94214409 -.00000439  00000+0 -27081-5 0  9998
2 60336  53.1618  51.2564 0001197  78.6775 281.4360 15.30187750 20480
